CCSDS_OEM_VERS = 2.0  
CREATION_DATE  = 2026-05-08T16:26:36
ORIGINATOR     = ESOC/OPS-GFA                            
 
 



META_START
OBJECT_NAME          = LISA                                    
OBJECT_ID            = -1000                                   
CENTER_NAME          = SUN                     
REF_FRAME            = EME2000 
TIME_SYSTEM          = TCB
START_TIME           = 2036-12-23T00:00:30.346418            
STOP_TIME            = 2047-09-05T19:07:13.293800            
INTERPOLATION        = HERMITE                                 
INTERPOLATION_DEGREE = 7                                       
META_STOP

2037-12-26T23:27:17.386233     3.79857342675313950e+07    1.32876105100067064e+08    5.89317209335362613e+07   -2.86957016377455005e+01    6.87238282561238911e+00    2.92200622817441591e+00   -1.48684115799088202e-06   -5.20008670331985841e-06   -2.30628658174317249e-06
2037-12-27T19:46:27.218730     3.58827438218994215e+07    1.33364888751754642e+08    5.91392874372668266e+07   -2.88014578660748981e+01    6.49128232625783674e+00    2.75299783117047303e+00   -1.40460397334195395e-06   -5.21945758734956303e-06   -2.31451680396590650e-06
2037-12-28T16:05:37.051227     3.37722376180781126e+07    1.33825744125189036e+08    5.93344694224260002e+07   -2.89011874602212906e+01    6.10880417185885527e+00    2.58340483238616470e+00   -1.32206883695972077e-06   -5.23775270401575356e-06   -2.32226998050413806e-06
2037-12-29T12:24:46.883724     3.16546572911242098e+07    1.34258573270859182e+08    5.95172253785649091e+07   -2.89948692283623259e+01    5.72502719782675040e+00    2.41326218854229912e+00   -1.23925225282182943e-06   -5.25496816819534806e-06   -2.32954445949218069e-06
2037-12-30T08:43:56.716222     2.95304459810855612e+07    1.34663284014895618e+08    5.96875163560430780e+07   -2.90824831878459378e+01    5.34003051729315281e+00    2.24260497432491945e+00   -1.15617077559428511e-06   -5.27110026897442749e-06   -2.33633866622960845e-06
2037-12-31T05:03:06.548719     2.74000482400240749e+07    1.35039790025780201e+08    5.98453059951663464e+07   -2.91640105685618778e+01    4.95389350904202530e+00    2.07146837704019227e+00   -1.07284100121766597e-06   -5.28614545052777310e-06   -2.34265109470092556e-06
2038-01-01T01:22:16.381216     2.52639099363409840e+07    1.35388010908333093e+08    5.99905605673822910e+07   -2.92394338155749622e+01    4.56669580698843447e+00    1.89988769195552099e+00   -9.89279556106654953e-07   -5.30010028887796878e-06   -2.34848029726187934e-06
2038-01-01T21:36:03.920418     2.31319241593908742e+07    1.35706525062050194e+08    6.01226918930198401e+07   -2.93084446999997184e+01    4.18022959611508416e+00    1.72865692859079978e+00   -9.05872846793820166e-07   -5.31290777960786805e-06   -2.35380264604681878e-06
2038-01-02T17:49:51.459621     2.09951338549472466e+07    1.35996860842714310e+08    6.02423392208538726e+07   -2.93713740251691249e+01    3.79287019712396223e+00    1.55705607503211230e+00   -8.22269693124734405e-07   -5.32462870746764845e-06   -2.35864358315765060e-06
2038-01-03T14:03:38.998824     1.88539824212968722e+07    1.36258956111328065e+08    6.03494768871609718e+07   -2.94282080890748929e+01    3.40469683576367510e+00    1.38512023047065291e+00   -7.38486704001504594e-07   -5.33526051315984337e-06   -2.36300204349490989e-06
2038-01-04T10:17:26.538026     1.67089142301834412e+07    1.36492754452191412e+08    6.04440817637307644e+07   -2.94789344007410783e+01    3.01578891872595944e+00    1.21288456925090138e+00   -6.54540527921356372e-07   -5.34480079083284066e-06   -2.36687703002964790e-06
2038-01-05T06:31:14.077228     1.45603745223957449e+07    1.36698205231979191e+08    6.05261332835761830e+07   -2.95235416830679220e+01    2.62622602167771202e+00    1.04038433556243759e+00   -5.70447851801144847e-07   -5.35324730908182532e-06   -2.37026762309409304e-06
2038-01-06T02:45:01.616431     1.24088093107600193e+07    1.36875263635769904e+08    6.05956134564783201e+07   -2.95620198755772421e+01    2.23608787591455416e+00    8.67654837522011224e-01   -4.86225399478678878e-07   -5.36059802790235321e-06   -2.37317298787952762e-06
2038-01-06T22:58:49.155633     1.02546652888545804e+07    1.37023890684844017e+08    6.06525068764904216e+07   -2.95943601370369009e+01    1.84545435392690749e+00    6.94731440774750464e-01   -4.01889929890169226e-07   -5.36685111160314889e-06   -2.37559238014461569e-06
2038-01-07T19:12:36.694836     8.09838974378456175e+06    1.37144053241064548e+08    6.06968007235229537e+07   -2.96205548479407064e+01    1.45440545417312928e+00    5.21649561744963464e-01   -3.17458234922457510e-07   -5.37200493766660137e-06   -2.37752515012891298e-06
2038-01-08T15:26:24.234038     5.94043047135452926e+06    1.37235724002653062e+08    6.07284847611320913e+07   -2.96405976128201090e+01    1.06302128535427265e+00    3.48444660666999528e-01   -2.32947136942477141e-07   -5.37605810157777687e-06   -2.37897074468073261e-06
2038-01-09T11:40:11.773241     3.78123569197696447e+06    1.37298881496173859e+08    6.07475513326336741e+07   -2.96544832623641206e+01    6.71382050485032522e-01    1.75152234526639194e-01   -1.48373486000003405e-07   -5.37900941758797326e-06   -2.37992870758446875e-06
2038-01-10T07:53:59.312443     1.62125396565421671e+06    1.37333510069539428e+08    6.07539953576648682e+07   -2.96622078553237927e+01    2.79568031055434929e-01    1.80781004345198504e-03   -6.37541567083864517e-08   -5.38085791546025095e-06   -2.38039867810824592e-06
2038-01-11T04:07:46.851645    -5.39065895628023893e+05    1.37339599890850037e+08    6.07478143313156366e+07   -2.96637686801776503e+01   -1.12340428422188943e-01   -1.71553063175390097e-01    2.08939551982628287e-08   -5.38160283315705248e-06   -2.38038038775442325e-06
2038-01-12T00:21:34.390848    -2.69927491975810751e+06    1.37317146957880616e+08    6.07290083279522359e+07   -2.96591642565344706e+01   -5.04262935186364558e-01   -3.44894819179391465e-01    1.05553936639704441e-07   -5.38124360545360555e-06   -2.37987365520524044e-06
2038-01-12T20:35:21.930051    -4.85892407226849347e+06    1.37266153123027563e+08    6.06975800118548647e+07   -2.96483943362497513e+01   -8.96119062025198865e-01   -5.18181881786657250e-01    1.90208861274816880e-07   -5.37977984858484437e-06   -2.37887837951222774e-06
2038-01-13T16:49:09.469253    -7.01756436168140173e+06    1.37186626138528675e+08    6.06535346567916423e+07   -2.96314599042322975e+01   -1.28782835980619748e+00   -6.91378670132951623e-01    2.74841793922573923e-07   -5.37721134077520794e-06   -2.37739453146163556e-06
2038-01-14T13:02:57.008455    -9.17474695409105346e+06    1.37078579726769060e+08    6.05968801766511202e+07   -2.96083631789172728e+01   -1.67931036844246329e+00   -8.64449603527513766e-01    3.59435795312712852e-07   -5.37353799869558120e-06   -2.37542214313606368e-06
2038-01-15T09:07:59.660267    -1.13144974293752797e+07    1.36943119453753561e+08    6.05281712252076343e+07   -2.95793404903204618e+01   -2.06766663971505871e+00   -1.03611357093925616e+00    4.43364825898790155e-07   -5.36879881081347253e-06   -2.37298103183554114e-06
2038-01-16T05:13:02.312079    -1.34519301731160004e+07    1.36779593341675580e+08    6.04470573195130900e+07   -2.95442520030840363e+01   -2.45564091304694720e+00   -1.20758364758862902e+00    5.27222139277863185e-07   -5.36297147266223747e-06   -2.37005889366089856e-06
2038-01-17T01:18:04.963891    -1.55866068320231810e+07    1.36588031874986947e+08    6.03535537447501197e+07   -2.95031035022658870e+01   -2.84315453813158392e+00   -1.37882506783372527e+00    6.10991144865605430e-07   -5.35605672377993617e-06   -2.36665612338707871e-06
2038-01-17T21:23:07.615703    -1.77180894837389179e+07    1.36368471177494466e+08    6.02476782787896991e+07   -2.94559019727381362e+01   -3.23012892376840943e+00   -1.54980309707117714e+00    6.94655245622510623e-07   -5.34805546314620424e-06   -2.36277318638047449e-06
2038-01-18T17:28:10.267515    -1.98459407494207658e+07    1.36120953047231793e+08    6.01294512071556970e+07   -2.94026555994345422e+01   -3.61648555009918482e+00   -1.72048303715238471e+00    7.78197844024148732e-07   -5.33896876805293049e-06   -2.35841062691829505e-06
2038-01-19T13:33:12.919326    -2.19697238940765746e+07    1.35845524971483469e+08    5.99988953292604461e+07   -2.93433737671879129e+01   -4.00214598207073990e+00   -1.89083023234031655e+00    8.61602347427877611e-07   -5.32879790926072400e-06   -2.35356907486770992e-06
2038-01-20T09:38:15.571138    -2.40890029173423946e+07    1.35542240126076162e+08    5.98560359577203691e+07   -2.92780670602012343e+01   -4.38703188385948906e+00   -2.06081007569002583e+00    9.44852172838506592e-07   -5.31754436244767227e-06   -2.34824925072785536e-06
2038-01-21T05:43:18.222950    -2.62033426373747885e+07    1.35211157363051206e+08    5.97009009125604108e+07   -2.92067472611960106e+01   -4.77106503398935100e+00   -2.23038801573437784e+00    1.02793075107128057e-06   -5.30520981593892858e-06   -2.34245196902948284e-06
2038-01-22T01:48:20.874762    -2.83123087705287300e+07    1.34852341190832317e+08    5.95335205121160969e+07   -2.91294273502813077e+01   -5.15416734087471617e+00   -2.39952956335648970e+00    1.11082153031492556e-06   -5.29179617473763587e-06   -2.33617814010134546e-06
2038-01-22T21:53:23.526573    -3.04154680094922967e+07    1.34465861751002371e+08    5.93539275624419004e+07   -2.90461215035869920e+01   -5.53626085852011673e+00   -2.56820029873037647e+00    1.19350797909026568e-06   -5.27730556082365157e-06   -2.32942877018855806e-06
2038-01-23T17:58:26.178385    -3.25123881025494821e+07    1.34051794795803636e+08    5.91621573470348343e+07   -2.89568450917047002e+01   -5.91726780210820813e+00   -2.73636587821131894e+00    1.27597358861148479e-06   -5.26174030976698532e-06   -2.32220495994356026e-06
